KUIPER-00619            
1 69777U 26151Q   26199.29447879  .00011987  00000+0  31937-3 0  9999
2 69777  51.8807 165.2590 0001820  65.7404 294.3774 15.38591696  2496
KUIPER-00621            
1 69778U 26151R   26199.29685145 -.00028602  00000+0 -73883-3 0  9990
2 69778  51.8803 165.2769 0002314 112.0327 248.0906 15.38280323  2495
KUIPER-00622            
1 69779U 26151S   26199.24554601  .00009157  00000+0  25964-3 0  9997
2 69779  51.8740 165.6799 0006861 156.8113 203.3184 15.36959265  2480
KUIPER-00623            
1 69780U 26151T   26198.26556190  .00133416  00000+0  34980-2 0  9998
2 69780  51.8777 170.3650 0006129 146.6000 213.5375 15.37672053  2337
KUIPER-00626            
1 69781U 26151U   26199.12802498 -.00052319  00000+0 -15116-2 0  9994
2 69781  51.8697 166.3843 0008716 175.5085 184.5981 15.35068983  2469
KUIPER-00627            
1 69782U 26151V   26199.13008722 -.00019508  00000+0 -55975-3 0  9995
2 69782  51.8687 166.3992 0010361 177.7443 182.3591 15.34740876  2465
KUIPER-00629            
1 69783U 26151W   26199.25002315 -.01087108  00000+0 -38685-1 0  9990
2 69783  51.8779 165.7573 0006539 166.5712 182.0707 15.31265908  2813
KUIPER-00631            
1 69784U 26151X   26199.25002315 -.01764220  00000+0 -61012-1 0  9998
2 69784  51.8738 165.7493 0008270 166.3755 179.3973 15.32639109  1305
KUIPER-00634            
1 69785U 26151Y   26199.23786348  .00008812  00000+0  24384-3 0  9990
2 69785  51.8780 165.6315 0003592 144.8967 215.2257 15.37784670  2487
KUIPER-00639            
1 69786U 26151Z   26199.12511195 -.00059319  00000+0 -16959-2 0  9993
2 69786  51.8690 166.3668 0009781 173.3174 186.7944 15.35442523  2469
KUIPER-00641            
1 69787U 26151AA  26199.26198786  .00002708  00000+0  90532-4 0  9995
2 69787  51.8676 165.7808 0011560 172.5486 187.5674 15.34656707  2489
KUIPER-00644            
1 69788U 26151AB  26199.00002315 -.00010254  00000+0 -27234-3 0  9995
2 69788  51.8744 166.9196 0008426 169.0368 245.6224 15.36540051  3389
KUIPER-00646            
1 69789U 26151AC  26199.25436693  .00000066  00000+0  12804-4 0  9999
2 69789  51.8701 165.7336 0007704 183.2916 176.8021 15.35912269  2484
KUIPER-00647            
1 69790U 26151AD  26199.25909325  .00008535  00000+0  25700-3 0  9995
2 69790  51.8673 165.7627 0010603 179.9038 180.1952 15.35132819  2482
KUIPER-00662            
1 69791U 26151AE  26199.18528492  .00003156  00000+0  97814-4 0  9990
2 69791  51.8744 166.0251 0008294 169.1961 190.9205 15.36538237  2472
LINK                    
1 69792U 26152A   26198.98491823  .00123932  00000+0  10350-2 0  9999
2 69792  20.5906 305.9176 0025268  34.3945 325.8133 15.67827429  2298
2026-152B               
1 69793U 26152B   26198.55215383  .00033116  00000+0  30884-3 0  9997
2 69793  20.5981 309.4890 0023033  25.7463 334.4126 15.64949376  2225
ISS OBJECT YJ           
1 69794U 98067YJ  26199.27372996  .00018999  00000+0  33801-3 0  9990
2 69794  51.6314 146.1518 0007733 322.4620  37.5828 15.50148318  2474
ISS OBJECT YK           
1 69795U 98067YK  26199.13965566  .00035727  00000+0  61067-3 0  9990
2 69795  51.6313 146.7573 0006626 329.4507  30.6095 15.50914604  2459
ISS OBJECT YL           
1 69796U 98067YL  26199.07665547  .00028307  00000+0  49057-3 0  9991
2 69796  51.6315 147.0863 0008719 322.6666  37.3717 15.50628198  2437
ISS OBJECT YM           
1 69797U 98067YM  26199.14076886  .00029042  00000+0  50205-3 0  9996
2 69797  51.6314 146.7645 0009527 314.1271  45.8934 15.50677012  2431
ISS OBJECT YN           
1 69798U 98067YN  26199.07743515  .00018532  00000+0  32670-3 0  9997
2 69798  51.6317 147.0913 0009190 325.6783  34.3611 15.50414888  2444
PROVES-ELECTRA          
1 69799U 98067YP  26198.17400478  .00024046  00000+0  41820-3 0  9990
2 69799  51.6315 151.5587 0009700 310.8273  49.1874 15.50615173  2295
QIANFAN-201             
1 69800U 26153A   26198.83974110  .00000055  00000+0  17183-4 0  9992
2 69800  88.9972 358.7543 0006199 157.8285 202.3177 14.25481230  1928
QIANFAN-202             
1 69801U 26153B   26199.28532066  .00000187  00000+0  83145-4 0  9990
2 69801  88.9926 358.6974 0007016 165.0832 195.0566 14.18843741  1980
QIANFAN-203             
1 69802U 26153C   26199.20704616  .00000105  00000+0  40677-4 0  9998
2 69802  88.9925 358.7043 0007648 174.1189 186.0094 14.22391127  1971
QIANFAN-204             
1 69803U 26153D   26199.28114742  .00000117  00000+0  48186-4 0  9998
2 69803  88.9926 358.6967 0007969 168.5181 191.6193 14.20114451  1986
QIANFAN-205             
1 69804U 26153E   26199.27884376  .00000096  00000+0  36733-4 0  9996
2 69804  88.9925 358.6961 0007866 172.5100 187.6210 14.22264772  1981
QIANFAN-206             
1 69805U 26153F   26199.26886754  .00000042  00000+0  11830-4 0  9990
2 69805  88.9925 358.6948 0008349 173.1328 186.9980 14.24034599  1983
QIANFAN-207             
1 69806U 26153G   26199.26716417  .00000139  00000+0  53927-4 0  9999
2 69806  88.9925 358.6946 0007784 173.1728 186.9572 14.24251008  1981
