OBJECT_NAME,OBJECT_ID,EPOCH,MEAN_MOTION,ECCENTRICITY,INCLINATION,RA_OF_ASC_NODE,ARG_OF_PERICENTER,MEAN_ANOMALY,EPHEMERIS_TYPE,CLASSIFICATION_TYPE,NORAD_CAT_ID,ELEMENT_SET_NO,REV_AT_EPOCH,BSTAR,MEAN_MOTION_DOT,MEAN_MOTION_DDOT
KUIPER-00619,2026-151Q,2026-07-18T07:04:02.967456,15.38591696,.00018204,51.8807,165.2590,65.7404,294.3774,0,U,69777,999,249,.31937415E-3,.11987E-3,0
KUIPER-00621,2026-151R,2026-07-18T07:07:27.965280,15.38280323,.00023148,51.8803,165.2769,112.0327,248.0906,0,U,69778,999,249,-.73882779E-3,-.28602E-3,0
KUIPER-00622,2026-151S,2026-07-18T05:53:35.175264,15.36959265,.00068617,51.8740,165.6799,156.8113,203.3184,0,U,69779,999,248,.25964016E-3,.9157E-4,0
KUIPER-00623,2026-151T,2026-07-17T06:22:24.548160,15.37672053,.0006129,51.8777,170.3650,146.6000,213.5375,0,U,69780,999,233,.3498E-2,.133416E-2,0
KUIPER-00626,2026-151U,2026-07-18T03:04:21.358272,15.35068983,.00087165,51.8697,166.3843,175.5085,184.5981,0,U,69781,999,246,-.1511643E-2,-.52319E-3,0
KUIPER-00627,2026-151V,2026-07-18T03:07:19.535808,15.34740876,.00103614,51.8687,166.3992,177.7443,182.3591,0,U,69782,999,246,-.55975255E-3,-.19508E-3,0
KUIPER-00629,2026-151W,2026-07-18T06:00:02.000160,15.31265908,.0006539,51.8779,165.7573,166.5712,182.0707,0,U,69783,999,281,-.38685078E-1,-.1087108E-1,0
KUIPER-00631,2026-151X,2026-07-18T06:00:02.000160,15.32639109,.00082708,51.8738,165.7493,166.3755,179.3973,0,U,69784,999,130,-.61011812E-1,-.176422E-1,0
KUIPER-00634,2026-151Y,2026-07-18T05:42:31.404672,15.37784670,.00035921,51.8780,165.6315,144.8967,215.2257,0,U,69785,999,248,.24383569E-3,.8812E-4,0
KUIPER-00639,2026-151Z,2026-07-18T03:00:09.672480,15.35442523,.00097819,51.8690,166.3668,173.3174,186.7944,0,U,69786,999,246,-.16959152E-2,-.59319E-3,0
KUIPER-00641,2026-151AA,2026-07-18T06:17:15.751104,15.34656707,.00115606,51.8676,165.7808,172.5486,187.5674,0,U,69787,999,248,.90532464E-4,.2708E-4,0
KUIPER-00644,2026-151AB,2026-07-18T00:00:02.000160,15.36540051,.00084264,51.8744,166.9196,169.0368,245.6224,0,U,69788,999,338,-.27234066E-3,-.10254E-3,0
KUIPER-00646,2026-151AC,2026-07-18T06:06:17.302752,15.35912269,.00077049,51.8701,165.7336,183.2916,176.8021,0,U,69789,999,248,.12803858E-4,.66E-6,0
KUIPER-00647,2026-151AD,2026-07-18T06:13:05.656800,15.35132819,.00106039,51.8673,165.7627,179.9038,180.1952,0,U,69790,999,248,.25699599E-3,.8535E-4,0
KUIPER-00662,2026-151AE,2026-07-18T04:26:48.617088,15.36538237,.00082947,51.8744,166.0251,169.1961,190.9205,0,U,69791,999,247,.97813531E-4,.3156E-4,0
LINK,2026-152A,2026-07-17T23:38:16.935072,15.67827429,.0025268,20.5906,305.9176,34.3945,325.8133,0,U,69792,999,229,.10349605E-2,.123932E-2,0
2026-152B,2026-152B,2026-07-17T13:15:06.090912,15.64949376,.0023033,20.5981,309.4890,25.7463,334.4126,0,U,69793,999,222,.30884E-3,.33116E-3,0
ISS OBJECT YJ,1998-067YJ,2026-07-18T06:34:10.268544,15.50148318,.00077336,51.6314,146.1518,322.4620,37.5828,0,U,69794,999,247,.33800951E-3,.18999E-3,0
ISS OBJECT YK,1998-067YK,2026-07-18T03:21:06.249024,15.50914604,.00066267,51.6313,146.7573,329.4507,30.6095,0,U,69795,999,245,.61066647E-3,.35727E-3,0
ISS OBJECT YL,1998-067YL,2026-07-18T01:50:23.032608,15.50628198,.00087195,51.6315,147.0863,322.6666,37.3717,0,U,69796,999,243,.49057354E-3,.28307E-3,0
ISS OBJECT YM,1998-067YM,2026-07-18T03:22:42.429504,15.50677012,.00095277,51.6314,146.7645,314.1271,45.8934,0,U,69797,999,243,.50205193E-3,.29042E-3,0
ISS OBJECT YN,1998-067YN,2026-07-18T01:51:30.396960,15.50414888,.00091903,51.6317,147.0913,325.6783,34.3611,0,U,69798,999,244,.32670208E-3,.18532E-3,0
PROVES-ELECTRA,1998-067YP,2026-07-17T04:10:34.012992,15.50615173,.00097002,51.6315,151.5587,310.8273,49.1874,0,U,69799,999,229,.41820358E-3,.24046E-3,0
QIANFAN-201,2026-153A,2026-07-17T20:09:13.631040,14.25481230,.00061997,88.9972,358.7543,157.8285,202.3177,0,U,69800,999,192,.17182966E-4,.55E-6,0
QIANFAN-202,2026-153B,2026-07-18T06:50:51.705024,14.18843741,.00070167,88.9926,358.6974,165.0832,195.0566,0,U,69801,999,198,.83144519E-4,.187E-5,0
QIANFAN-203,2026-153C,2026-07-18T04:58:08.788224,14.22391127,.00076481,88.9925,358.7043,174.1189,186.0094,0,U,69802,999,197,.40676543E-4,.105E-5,0
QIANFAN-204,2026-153D,2026-07-18T06:44:51.137088,14.20114451,.00079699,88.9926,358.6967,168.5181,191.6193,0,U,69803,999,198,.48185591E-4,.117E-5,0
QIANFAN-205,2026-153E,2026-07-18T06:41:32.100864,14.22264772,.00078665,88.9925,358.6961,172.5100,187.6210,0,U,69804,999,198,.3673281E-4,.96E-6,0
QIANFAN-206,2026-153F,2026-07-18T06:27:10.155456,14.24034599,.00083491,88.9925,358.6948,173.1328,186.9980,0,U,69805,999,198,.11830264E-4,.42E-6,0
QIANFAN-207,2026-153G,2026-07-18T06:24:42.984288,14.24251008,.00077845,88.9925,358.6946,173.1728,186.9572,0,U,69806,999,198,.53926755E-4,.139E-5,0
